NORAD_CAT_ID,OBJECT_NAME,OBJECT_TYPE,EPOCH,MEAN_MOTION,ECCENTRICITY,INCLINATION,RA_OF_ASC_NODE,ARG_OF_PERICENTER,MEAN_ANOMALY,BSTAR,MEAN_MOTION_DOT,MEAN_MOTION_DDOT,TLE_LINE0,TLE_LINE1,TLE_LINE2,SEMIMAJOR_AXIS,PERIOD,APOGEE,PERIGEE,DECAYED
56802.0,STARLINK-6070,PAYLOAD,2024-02-14 18:24:29,14.98331893,0.0002814,69.9992,65.3491,271.5854,88.4983,-2.6388e-05,-4.08e-06,0.0,0 STARLINK-6070,1 56802U 23078AM  24045.76700482 -.00000408  00000-0 -26388-4 0  9995,2 56802  69.9992  65.3491 0002814 271.5854  88.4983 14.98331893 40241,6950.187,96.107,574.008,570.096,0.0
56802.0,STARLINK-6070,PAYLOAD,2024-02-15 04:01:17,14.9832408,0.0002663,69.9992,64.3393,261.774,98.3117,2.8341e-05,2.45e-06,0.0,0 STARLINK-6070,1 56802U 23078AM  24046.16756881  .00000245  00000-0  28341-4 0  9992,2 56802  69.9992  64.3393 0002663 261.7740  98.3117 14.98324080 40562,6950.211,96.107,573.927,570.225,0.0
56802.0,STARLINK-6070,PAYLOAD,2024-02-15 10:25:50,14.98322726,0.0002694,69.9994,63.6662,262.0248,98.0605,1.1186e-05,4e-07,0.0,0 STARLINK-6070,1 56802U 23078AM  24046.43461094  .00000040  00000-0  11186-4 0  9993,2 56802  69.9994  63.6662 0002694 262.0248  98.0605 14.98322726 40346,6950.215,96.107,573.953,570.208,0.0
56802.0,STARLINK-6070,PAYLOAD,2024-02-15 18:26:30,14.98327595,0.0002962,69.999,62.824,268.3767,91.7053,-2.9852e-06,-1.29e-06,0.0,0 STARLINK-6070,1 56802U 23078AM  24046.76840842 -.00000129  00000-0 -29852-5 0  9991,2 56802  69.9990  62.8240 0002962 268.3767  91.7053 14.98327595 40399,6950.2,96.107,574.124,570.007,0.0
56802.0,STARLINK-6070,PAYLOAD,2024-02-16 04:03:18,14.98328241,0.0002906,69.999,61.8143,267.8239,92.2587,-2.1472e-05,-3.49e-06,0.0,0 STARLINK-6070,1 56802U 23078AM  24047.16896907 -.00000349  00000-0 -21472-4 0  9992,2 56802  69.9990  61.8143 0002906 267.8239  92.2587 14.98328241 40719,6950.198,96.107,574.083,570.044,0.0
56802.0,STARLINK-6070,PAYLOAD,2024-02-16 10:27:51,14.98325017,0.0003069,69.9991,61.1413,271.8829,88.1979,0.00010617,1.174e-05,0.0,0 STARLINK-6070,1 56802U 23078AM  24047.43600787  .00001174  00000-0  10617-3 0  9994,2 56802  69.9991  61.1413 0003069 271.8829  88.1979 14.98325017 40496,6950.208,96.107,574.206,569.94,0.0
56802.0,STARLINK-6070,PAYLOAD,2024-02-17 04:05:19,14.9832655,0.0002945,69.999,59.2891,267.7746,92.3075,2.5467e-05,2.11e-06,0.0,0 STARLINK-6070,1 56802U 23078AM  24048.17036857  .00000211  00000-0  25467-4 0  9998,2 56802  69.9990  59.2891 0002945 267.7746  92.3075 14.98326550 40865,6950.204,96.107,574.115,570.022,0.0
56802.0,STARLINK-6070,PAYLOAD,2024-02-17 10:29:51,14.983302,0.0002948,69.9991,58.6161,268.413,91.6692,4.0781e-05,3.94e-06,0.0,0 STARLINK-6070,1 56802U 23078AM  24048.43740608  .00000394  00000-0  40781-4 0  9991,2 56802  69.9991  58.6161 0002948 268.4130  91.6692 14.98330200 40647,6950.192,96.107,574.106,570.008,0.0
56802.0,STARLINK-6070,PAYLOAD,2024-02-17 18:30:32,14.98329114,0.0002915,69.9991,57.7728,267.6921,92.3904,1.297e-05,6.2e-07,0.0,0 STARLINK-6070,1 56802U 23078AM  24048.77120739  .00000062  00000-0  12970-4 0  9996,2 56802  69.9991  57.7728 0002915 267.6921  92.3904 14.98329114 40690,6950.196,96.107,574.087,570.035,0.0
56802.0,STARLINK-6070,PAYLOAD,2024-02-18 04:07:20,14.9832984,0.0002924,69.9989,56.7627,267.6432,92.4392,2.0441e-05,1.51e-06,0.0,0 STARLINK-6070,1 56802U 23078AM  24049.17176652  .00000151  00000-0  20441-4 0  9997,2 56802  69.9989  56.7627 0002924 267.6432  92.4392 14.98329840 41016,6950.193,96.107,574.091,570.026,0.0
56802.0,STARLINK-6070,PAYLOAD,2024-02-18 10:31:52,14.983338,0.000292,69.999,56.0894,267.8558,92.2267,2.8395e-05,2.46e-06,0.0,0 STARLINK-6070,1 56802U 23078AM  24049.43880344  .00000246  00000-0  28395-4 0  9997,2 56802  69.9990  56.0894 0002920 267.8558  92.2267 14.98333800 40798,6950.181,96.107,574.076,570.017,0.0
56802.0,STARLINK-6070,PAYLOAD,2024-02-19 04:09:21,14.98331796,0.00028,69.9995,54.2384,272.365,87.7189,2.4337e-05,1.97e-06,0.0,0 STARLINK-6070,1 56802U 23078AM  24050.17316398  .00000197  00000-0  24337-4 0  9990,2 56802  69.9995  54.2384 0002800 272.3650  87.7189 14.98331796 41164,6950.187,96.107,573.998,570.106,0.0
56802.0,STARLINK-6070,PAYLOAD,2024-02-19 10:33:53,14.98333014,0.0002785,69.9996,53.5651,272.8073,87.2767,3.6626e-05,3.44e-06,0.0,0 STARLINK-6070,1 56802U 23078AM  24050.44020243  .00000344  00000-0  36626-4 0  9999,2 56802  69.9996  53.5651 0002785 272.8073  87.2767 14.98333014 40947,6950.184,96.107,573.984,570.113,0.0
56802.0,STARLINK-6070,PAYLOAD,2024-02-19 16:58:26,14.9832671,0.0002689,69.9999,52.8914,272.9963,87.0888,-6.3048e-05,-8.45e-06,0.0,0 STARLINK-6070,1 56802U 23078AM  24050.70724911 -.00000845  00000-0 -63048-4 0  9997,2 56802  69.9999  52.8914 0002689 272.9963  87.0888 14.98326710 41247,6950.203,96.107,573.937,570.199,0.0
56802.0,STARLINK-6070,PAYLOAD,2024-02-19 23:22:58,14.98332111,0.000265,70.0,52.2181,271.4017,88.6838,-0.00013527,-1.707e-05,0.0,0 STARLINK-6070,1 56802U 23078AM  24050.97428813 -.00001707  00000-0 -13527-3 0  9992,2 56802  70.0000  52.2181 0002650 271.4017  88.6838 14.98332111 41025,6950.186,96.107,573.893,570.21,0.0
56802.0,STARLINK-6070,PAYLOAD,2024-02-20 08:59:47,14.98325575,0.0002848,69.9996,51.2091,268.5441,91.5391,-7.3285e-05,-9.67e-06,0.0,0 STARLINK-6070,1 56802U 23078AM  24051.37485042 -.00000967  00000-0 -73285-4 0  9999,2 56802  69.9996  51.2091 0002848 268.5441  91.5391 14.98325575 41081,6950.207,96.107,574.051,570.092,0.0
56802.0,STARLINK-6070,PAYLOAD,2024-02-20 17:00:27,14.98315781,0.0002759,69.9999,50.3675,269.3474,90.7369,0.000192,2.198e-05,0.0,0 STARLINK-6070,1 56802U 23078AM  24051.70865150  .00002198  00000-0  19200-3 0  9990,2 56802  69.9999  50.3675 0002759 269.3474  90.7369 14.98315781 41396,6950.237,96.108,574.019,570.184,0.0
56802.0,STARLINK-6070,PAYLOAD,2024-02-21 04:13:23,14.98333438,0.0002965,69.9994,49.1889,268.9731,91.1089,8.5836e-06,9e-08,0.0,0 STARLINK-6070,1 56802U 23078AM  24052.17596286  .00000009  00000-0  85836-5 0  9992,2 56802  69.9994  49.1889 0002965 268.9731  91.1089 14.98333438 41465,6950.182,96.107,574.108,569.987,0.0
56802.0,STARLINK-6070,PAYLOAD,2024-02-21 09:01:47,14.98334291,0.0002683,69.9996,48.684,257.8959,102.19,2.3041e-05,1.82e-06,0.0,0 STARLINK-6070,1 56802U 23078AM  24052.37624119  .00000182  00000-0  23041-4 0  9992,2 56802  69.9996  48.6840 0002683 257.8959 102.1900 14.98334291 41232,6950.18,96.107,573.909,570.18,0.0
56802.0,STARLINK-6070,PAYLOAD,2024-02-21 17:02:28,14.98321944,0.0002886,69.9996,47.8412,277.2736,82.8094,0.00017274,1.968e-05,0.0,0 STARLINK-6070,1 56802U 23078AM  24052.71004632  .00001968  00000-0  17274-3 0  9995,2 56802  69.9996  47.8412 0002886 277.2736  82.8094 14.98321944 41545,6950.218,96.108,574.089,570.077,0.0
56802.0,STARLINK-6070,PAYLOAD,2024-02-22 09:03:48,14.98326364,0.0002865,69.9998,46.1591,266.1911,93.892,2.4496e-05,1.99e-06,0.0,0 STARLINK-6070,1 56802U 23078AM  24053.37764675  .00000199  00000-0  24496-4 0  9998,2 56802  69.9998  46.1591 0002865 266.1911  93.8920 14.98326364 41389,6950.204,96.107,574.06,570.078,0.0
56802.0,STARLINK-6070,PAYLOAD,2024-02-22 17:04:28,14.98327375,0.0002999,69.9998,45.3173,269.4515,90.6301,2.4736e-05,2.02e-06,0.0,0 STARLINK-6070,1 56802U 23078AM  24053.71144639  .00000202  00000-0  24736-4 0  9990,2 56802  69.9998  45.3173 0002999 269.4515  90.6301 14.98327375 41695,6950.201,96.107,574.15,569.982,0.0
56802.0,STARLINK-6070,PAYLOAD,2024-02-23 09:05:49,14.98332822,0.0002937,69.9998,43.6332,269.7562,90.3261,1.6478e-05,1.04e-06,0.0,0 STARLINK-6070,1 56802U 23078AM  24054.37904229  .00000104  00000-0  16478-4 0  9997,2 56802  69.9998  43.6332 0002937 269.7562  90.3261 14.98332822 41538,6950.184,96.107,574.09,570.008,0.0
56802.0,STARLINK-6070,PAYLOAD,2024-02-23 17:06:29,14.98332172,0.0002961,69.9998,42.7915,269.3838,90.6982,-4.1323e-05,-5.86e-06,0.0,0 STARLINK-6070,1 56802U 23078AM  24054.71284340 -.00000586  00000-0 -41323-4 0  9993,2 56802  69.9998  42.7915 0002961 269.3838  90.6982 14.98332172 41849,6950.186,96.107,574.109,569.993,0.0
56802.0,STARLINK-6070,PAYLOAD,2024-02-23 21:54:53,14.98327697,0.000295,69.9998,42.2865,270.043,90.0391,1.4948e-05,8.5e-07,0.0,0 STARLINK-6070,1 56802U 23078AM  24054.91312469  .00000085  00000-0  14948-4 0  9994,2 56802  69.9998  42.2865 0002950 270.0430  90.0391 14.98327697 41612,6950.2,96.107,574.115,570.015,0.0
56802.0,STARLINK-6070,PAYLOAD,2024-02-24 09:07:50,14.98328822,0.0002979,69.9998,41.1085,270.3797,89.7021,8.1836e-06,5e-08,0.0,0 STARLINK-6070,1 56802U 23078AM  24055.38044451  .00000005  00000-0  81836-5 0  9992,2 56802  69.9998  41.1085 0002979 270.3797  89.7021 14.98328822 41687,6950.197,96.107,574.132,569.991,0.0
56802.0,STARLINK-6070,PAYLOAD,2024-02-24 21:56:54,14.98329801,0.0002974,69.9999,39.7619,270.2649,89.817,-2.2278e-05,-3.59e-06,0.0,0 STARLINK-6070,1 56802U 23078AM  24055.91452487 -.00000359  00000-0 -22278-4 0  9991,2 56802  69.9999  39.7619 0002974 270.2649  89.8170 14.98329801 41767,6950.194,96.107,574.125,569.992,0.0
56802.0,STARLINK-6070,PAYLOAD,2024-02-25 02:45:18,14.98334002,0.0002876,70.0004,39.2579,270.2757,89.8072,1.7583e-05,1.17e-06,0.0,0 STARLINK-6070,1 56802U 23078AM  24056.11480064  .00000117  00000-0  17583-4 0  9999,2 56802  70.0004  39.2579 0002876 270.2757  89.8072 14.98334002 42051,6950.181,96.107,574.044,570.047,0.0
56802.0,STARLINK-6070,PAYLOAD,2024-02-25 09:09:50,14.98336666,0.0002833,70.0004,38.5845,268.9613,91.1221,4.4348e-05,4.36e-06,0.0,0 STARLINK-6070,1 56802U 23078AM  24056.38183743  .00000436  00000-0  44348-4 0  9995,2 56802  70.0004  38.5845 0002833 268.9613  91.1221 14.98336666 41832,6950.172,96.107,574.006,570.068,0.0
56802.0,STARLINK-6070,PAYLOAD,2024-02-25 21:58:56,14.98245886,0.0003093,70.0007,37.2383,263.8885,96.1921,0.0014113,0.0001675,0.0,0 STARLINK-6070,1 56802U 23078AM  24056.91593241  .00016750  00000-0  14113-2 0  9993,2 56802  70.0007  37.2383 0003093 263.8885  96.1921 14.98245886 41916,6950.453,96.112,574.468,570.168,0.0
